 2022 1116 2132 44.4 LQ 31.637-103.999  6.9   TX 70 0.1 5.4L TX                1
 2022 1116 2132 44.481  31.63675 -103.99879    6.903  0.100                    H
 GAP=46     TX             0.3     0.4  0.6  4.0533e-02                        E
     110.4      46.6    -108.4                 0.2                 TX    None  F
 Action:ARG 24-10-09 00:10 OP:OBSP STATUS:               ID:20221116213244     I
 STAT SP IPHASW D HRMM SECON CODA AMPLIT PERI AZIMU VELO AIN AR TRES W  DIS CAZ7
 PB24 HZ  P       213246.158                             158   -0.0412 2.61 223 
 WB03 HN  P       213246.257                             148   -0.0512 4.06 135 
 PB34 HZ  P       213246.650                             138    0.18 9 5.79 320 
 PB34 H1  S       213247.948                             138   -0.0210 5.79 320 
 PB20 HN  P       213246.574                             136    0.0612 6.05 261 
 PB40 HZ  P     D 213246.537                             135    0.0313 6.18  84 
 PB40 H2  S       213247.826                             135   -0.20 8 6.18  84 
 PB23 HN  P     C 213246.806                             126    0.0912 7.64 293 
 PB23 HE  S       213248.308                             126   -0.0812 7.64 293 
 PB25 HN  P       213246.919                             120    0.0013 9.03 228 
 PB31 H1  P       213247.349                             112    0.1610 11.1 344 
 WB01 HZ  P       213247.361                             112    0.15 9 11.1 328 
 WB01 HN  S       213249.278                             112    0.0310 11.1 328 
 WB02 HN  P       213247.518                             109    0.1411 12.2  24 
 PB33 HZ  P       213247.396                             108   -0.0512 12.5 205 
 PB33 H2  S       213249.779                             108    0.1111 12.5 205 
 WB04 HN  P       213247.399                             108   -0.0712 12.7 158 
 PB43 HZ  P     C 213247.685                             106    0.0912 13.6  69 
 PB43 H2  S       213250.586                             106    0.66   13.6  69 
                                                                                

