<?xml version="1.0" encoding="UTF-8"?>
<seiscomp xmlns="http://geofon.gfz-potsdam.de/ns/seiscomp3-schema/0.12" version="0.12">
  <EventParameters publicID="smi:local/6e8dfcc6-6330-4c6c-b64f-2f24cf8ed4ce">
    <pick publicID="Pick/20221117015938.385144.74510">
      <time>
        <value>2022-11-16T21:32:46.157945Z</value>
        <lowerUncertainty>0.1000000015</lowerUncertainty>
        <upperUncertainty>0.1000000015</upperUncertainty>
      </time>
      <waveformID networkCode="TX" stationCode="PB24" locationCode="00" channelCode="HHZ"/>
      <phaseHint>P</phaseHint>
      <evaluationMode>manual</evaluationMode>
      <creationInfo>
        <agencyID>TX</agencyID>
        <creationTime>2022-11-17T01:59:38.385218Z</creationTime>
      </creationInfo>
    </pick>
    <pick publicID="Pick/20221117015938.3853.74512">
      <time>
        <value>2022-11-16T21:32:46.573785Z</value>
        <lowerUncertainty>0.1000000015</lowerUncertainty>
        <upperUncertainty>0.1000000015</upperUncertainty>
      </time>
      <waveformID networkCode="TX" stationCode="PB20" locationCode="00" channelCode="HHN"/>
      <phaseHint>P</phaseHint>
      <evaluationMode>manual</evaluationMode>
      <creationInfo>
        <agencyID>TX</agencyID>
        <creationTime>2022-11-17T01:59:38.385314Z</creationTime>
      </creationInfo>
    </pick>
    <pick publicID="Pick/20221116214756.54407.84373">
      <time>
        <value>2022-11-16T21:32:46.649570Z</value>
        <lowerUncertainty>0.1000000015</lowerUncertainty>
        <upperUncertainty>0.1000000015</upperUncertainty>
      </time>
      <waveformID networkCode="TX" stationCode="PB34" locationCode="00" channelCode="HHZ"/>
      <phaseHint>P</phaseHint>
      <evaluationMode>manual</evaluationMode>
      <creationInfo>
        <agencyID>TX</agencyID>
        <creationTime>2022-11-16T21:47:56.544213Z</creationTime>
      </creationInfo>
    </pick>
    <pick publicID="Pick/20221116214756.544252.84374">
      <time>
        <value>2022-11-16T21:32:47.948153Z</value>
        <lowerUncertainty>0.200000003</lowerUncertainty>
        <upperUncertainty>0.200000003</upperUncertainty>
      </time>
      <waveformID networkCode="TX" stationCode="PB34" locationCode="00" channelCode="HH1"/>
      <phaseHint>S</phaseHint>
      <evaluationMode>manual</evaluationMode>
      <creationInfo>
        <agencyID>TX</agencyID>
        <creationTime>2022-11-16T21:47:56.544283Z</creationTime>
      </creationInfo>
    </pick>
    <pick publicID="Pick/20221117015938.385263.74511">
      <time>
        <value>2022-11-16T21:32:46.256619Z</value>
        <lowerUncertainty>0.1000000015</lowerUncertainty>
        <upperUncertainty>0.1000000015</upperUncertainty>
      </time>
      <waveformID networkCode="4O" stationCode="WB03" locationCode="00" channelCode="HHN"/>
      <phaseHint>P</phaseHint>
      <evaluationMode>manual</evaluationMode>
      <creationInfo>
        <agencyID>TX</agencyID>
        <creationTime>2022-11-17T01:59:38.385276Z</creationTime>
      </creationInfo>
    </pick>
    <pick publicID="Pick/20221117164826.5324.115003">
      <time>
        <value>2022-11-16T21:32:46.806374Z</value>
        <lowerUncertainty>0.1000000015</lowerUncertainty>
        <upperUncertainty>0.1000000015</upperUncertainty>
      </time>
      <waveformID networkCode="TX" stationCode="PB23" locationCode="00" channelCode="HHN"/>
      <phaseHint>P</phaseHint>
      <polarity>positive</polarity>
      <evaluationMode>manual</evaluationMode>
      <creationInfo>
        <agencyID>TX</agencyID>
        <creationTime>2022-11-17T16:48:26.532423Z</creationTime>
      </creationInfo>
    </pick>
    <pick publicID="Pick/20221117015938.385627.74518">
      <time>
        <value>2022-11-16T21:32:48.307627Z</value>
        <lowerUncertainty>0.1000000015</lowerUncertainty>
        <upperUncertainty>0.1000000015</upperUncertainty>
      </time>
      <waveformID networkCode="TX" stationCode="PB23" locationCode="00" channelCode="HHE"/>
      <phaseHint>S</phaseHint>
      <evaluationMode>manual</evaluationMode>
      <creationInfo>
        <agencyID>TX</agencyID>
        <creationTime>2022-11-17T01:59:38.385639Z</creationTime>
      </creationInfo>
    </pick>
    <pick publicID="Pick/20221117015938.385718.74520">
      <time>
        <value>2022-11-16T21:32:46.919144Z</value>
        <lowerUncertainty>0.1000000015</lowerUncertainty>
        <upperUncertainty>0.1000000015</upperUncertainty>
      </time>
      <waveformID networkCode="TX" stationCode="PB25" locationCode="00" channelCode="HHN"/>
      <phaseHint>P</phaseHint>
      <evaluationMode>manual</evaluationMode>
      <creationInfo>
        <agencyID>TX</agencyID>
        <creationTime>2022-11-17T01:59:38.385731Z</creationTime>
      </creationInfo>
    </pick>
    <pick publicID="Pick/20221117164826.532236.115001">
      <time>
        <value>2022-11-16T21:32:46.536693Z</value>
        <lowerUncertainty>0.1000000015</lowerUncertainty>
        <upperUncertainty>0.1000000015</upperUncertainty>
      </time>
      <waveformID networkCode="TX" stationCode="PB40" locationCode="00" channelCode="HNZ"/>
      <phaseHint>P</phaseHint>
      <polarity>negative</polarity>
      <evaluationMode>manual</evaluationMode>
      <creationInfo>
        <agencyID>TX</agencyID>
        <creationTime>2022-11-17T16:48:26.532298Z</creationTime>
      </creationInfo>
    </pick>
    <pick publicID="Pick/20221117165346.006932.115338">
      <time>
        <value>2022-11-16T21:32:47.826042Z</value>
        <lowerUncertainty>0.1000000015</lowerUncertainty>
        <upperUncertainty>0.1000000015</upperUncertainty>
      </time>
      <waveformID networkCode="TX" stationCode="PB40" locationCode="00" channelCode="HN2"/>
      <phaseHint>S</phaseHint>
      <evaluationMode>manual</evaluationMode>
      <creationInfo>
        <agencyID>TX</agencyID>
        <creationTime>2022-11-17T16:53:46.006988Z</creationTime>
      </creationInfo>
    </pick>
    <pick publicID="Pick/20221116214756.544409.84377">
      <time>
        <value>2022-11-16T21:32:47.360699Z</value>
        <lowerUncertainty>0.200000003</lowerUncertainty>
        <upperUncertainty>0.200000003</upperUncertainty>
      </time>
      <waveformID networkCode="4O" stationCode="WB01" locationCode="00" channelCode="HHZ"/>
      <phaseHint>P</phaseHint>
      <evaluationMode>manual</evaluationMode>
      <creationInfo>
        <agencyID>TX</agencyID>
        <creationTime>2022-11-16T21:47:56.544435Z</creationTime>
      </creationInfo>
    </pick>
    <pick publicID="Pick/20221116214756.544453.84378">
      <time>
        <value>2022-11-16T21:32:49.277653Z</value>
        <lowerUncertainty>0.200000003</lowerUncertainty>
        <upperUncertainty>0.200000003</upperUncertainty>
      </time>
      <waveformID networkCode="4O" stationCode="WB01" locationCode="00" channelCode="HHN"/>
      <phaseHint>S</phaseHint>
      <evaluationMode>manual</evaluationMode>
      <creationInfo>
        <agencyID>TX</agencyID>
        <creationTime>2022-11-16T21:47:56.544478Z</creationTime>
      </creationInfo>
    </pick>
    <pick publicID="Pick/20221117015938.385851.74521">
      <time>
        <value>2022-11-16T21:32:47.349081Z</value>
        <lowerUncertainty>0.1000000015</lowerUncertainty>
        <upperUncertainty>0.1000000015</upperUncertainty>
      </time>
      <waveformID networkCode="TX" stationCode="PB31" locationCode="00" channelCode="HH1"/>
      <phaseHint>P</phaseHint>
      <evaluationMode>manual</evaluationMode>
      <creationInfo>
        <agencyID>TX</agencyID>
        <creationTime>2022-11-17T01:59:38.385864Z</creationTime>
      </creationInfo>
    </pick>
    <pick publicID="Pick/20221117164826.53251.115004">
      <time>
        <value>2022-11-16T21:32:47.395833Z</value>
        <lowerUncertainty>0.1000000015</lowerUncertainty>
        <upperUncertainty>0.1000000015</upperUncertainty>
      </time>
      <waveformID networkCode="TX" stationCode="PB33" locationCode="00" channelCode="HNZ"/>
      <phaseHint>P</phaseHint>
      <evaluationMode>manual</evaluationMode>
      <creationInfo>
        <agencyID>TX</agencyID>
        <creationTime>2022-11-17T16:48:26.532533Z</creationTime>
      </creationInfo>
    </pick>
    <pick publicID="Pick/20221117164826.532567.115005">
      <time>
        <value>2022-11-16T21:32:49.778777Z</value>
        <lowerUncertainty>0.1000000015</lowerUncertainty>
        <upperUncertainty>0.1000000015</upperUncertainty>
      </time>
      <waveformID networkCode="TX" stationCode="PB33" locationCode="00" channelCode="HN2"/>
      <phaseHint>S</phaseHint>
      <evaluationMode>manual</evaluationMode>
      <creationInfo>
        <agencyID>TX</agencyID>
        <creationTime>2022-11-17T16:48:26.532580Z</creationTime>
      </creationInfo>
    </pick>
    <pick publicID="Pick/20221117015938.386056.74526">
      <time>
        <value>2022-11-16T21:32:47.517653Z</value>
        <lowerUncertainty>0.1000000015</lowerUncertainty>
        <upperUncertainty>0.1000000015</upperUncertainty>
      </time>
      <waveformID networkCode="4O" stationCode="WB02" locationCode="00" channelCode="HHN"/>
      <phaseHint>P</phaseHint>
      <evaluationMode>manual</evaluationMode>
      <creationInfo>
        <agencyID>TX</agencyID>
        <creationTime>2022-11-17T01:59:38.386069Z</creationTime>
      </creationInfo>
    </pick>
    <pick publicID="Pick/20221117015938.385932.74523">
      <time>
        <value>2022-11-16T21:32:47.398627Z</value>
        <lowerUncertainty>0.1000000015</lowerUncertainty>
        <upperUncertainty>0.1000000015</upperUncertainty>
      </time>
      <waveformID networkCode="4O" stationCode="WB04" locationCode="00" channelCode="HHN"/>
      <phaseHint>P</phaseHint>
      <evaluationMode>manual</evaluationMode>
      <creationInfo>
        <agencyID>TX</agencyID>
        <creationTime>2022-11-17T01:59:38.385945Z</creationTime>
      </creationInfo>
    </pick>
    <pick publicID="Pick/20221117164826.532752.115006">
      <time>
        <value>2022-11-16T21:32:47.684791Z</value>
        <lowerUncertainty>0.1000000015</lowerUncertainty>
        <upperUncertainty>0.1000000015</upperUncertainty>
      </time>
      <waveformID networkCode="TX" stationCode="PB43" locationCode="00" channelCode="HNZ"/>
      <phaseHint>P</phaseHint>
      <polarity>positive</polarity>
      <evaluationMode>manual</evaluationMode>
      <creationInfo>
        <agencyID>TX</agencyID>
        <creationTime>2022-11-17T16:48:26.532782Z</creationTime>
      </creationInfo>
    </pick>
    <pick publicID="Pick/20221117164826.532803.115007">
      <time>
        <value>2022-11-16T21:32:50.586002Z</value>
        <lowerUncertainty>0.200000003</lowerUncertainty>
        <upperUncertainty>0.200000003</upperUncertainty>
      </time>
      <waveformID networkCode="TX" stationCode="PB43" locationCode="00" channelCode="HN2"/>
      <phaseHint>S</phaseHint>
      <evaluationMode>manual</evaluationMode>
      <creationInfo>
        <agencyID>TX</agencyID>
        <creationTime>2022-11-17T16:48:26.532822Z</creationTime>
      </creationInfo>
    </pick>
    <pick publicID="Pick/20221116214756.544502.84379">
      <time>
        <value>2022-11-16T21:32:51.101852Z</value>
        <lowerUncertainty>0.3000000119</lowerUncertainty>
        <upperUncertainty>0.3000000119</upperUncertainty>
      </time>
      <waveformID networkCode="4O" stationCode="SA06" locationCode="00" channelCode="HHE"/>
      <filterID>BW(2,2,8)</filterID>
      <phaseHint>S</phaseHint>
      <evaluationMode>manual</evaluationMode>
      <creationInfo>
        <agencyID>TX</agencyID>
        <creationTime>2022-11-16T21:47:56.544527Z</creationTime>
      </creationInfo>
    </pick>
    <pick publicID="Pick/20221117164826.532898.115008">
      <time>
        <value>2022-11-16T21:32:51.057011Z</value>
        <lowerUncertainty>0.200000003</lowerUncertainty>
        <upperUncertainty>0.200000003</upperUncertainty>
      </time>
      <waveformID networkCode="TX" stationCode="PB13" locationCode="01" channelCode="HHN"/>
      <phaseHint>S</phaseHint>
      <evaluationMode>manual</evaluationMode>
      <creationInfo>
        <agencyID>TX</agencyID>
        <creationTime>2022-11-17T16:48:26.532918Z</creationTime>
      </creationInfo>
    </pick>
    <pick publicID="Pick/20221116214756.544638.84382">
      <time>
        <value>2022-11-16T21:32:52.075791Z</value>
        <lowerUncertainty>0.3000000119</lowerUncertainty>
        <upperUncertainty>0.3000000119</upperUncertainty>
      </time>
      <waveformID networkCode="4O" stationCode="WB05" locationCode="00" channelCode="HHN"/>
      <phaseHint>S</phaseHint>
      <evaluationMode>manual</evaluationMode>
      <creationInfo>
        <agencyID>TX</agencyID>
        <creationTime>2022-11-16T21:47:56.544662Z</creationTime>
      </creationInfo>
    </pick>
    <pick publicID="Pick/20221116215249.515307.86784">
      <time>
        <value>2022-11-16T21:32:52.774102Z</value>
      </time>
      <waveformID networkCode="4O" stationCode="SA02" locationCode="00" channelCode="HHE"/>
      <phaseHint>S</phaseHint>
      <evaluationMode>manual</evaluationMode>
      <creationInfo>
        <agencyID>TX</agencyID>
        <creationTime>2022-11-16T21:52:49.515437Z</creationTime>
      </creationInfo>
    </pick>
    <pick publicID="Pick/20221117015938.386418.74531">
      <time>
        <value>2022-11-16T21:32:53.107409Z</value>
        <lowerUncertainty>0.200000003</lowerUncertainty>
        <upperUncertainty>0.200000003</upperUncertainty>
      </time>
      <waveformID networkCode="4O" stationCode="CV01" channelCode="HHE"/>
      <phaseHint>S</phaseHint>
      <evaluationMode>manual</evaluationMode>
      <creationInfo>
        <agencyID>TX</agencyID>
        <creationTime>2022-11-17T01:59:38.386431Z</creationTime>
      </creationInfo>
    </pick>
    <pick publicID="Pick/20221116215249.51548.86785">
      <time>
        <value>2022-11-16T21:32:53.504887Z</value>
        <lowerUncertainty>0.1000000015</lowerUncertainty>
        <upperUncertainty>0.1000000015</upperUncertainty>
      </time>
      <waveformID networkCode="4O" stationCode="SA04" locationCode="00" channelCode="HHN"/>
      <phaseHint>S</phaseHint>
      <evaluationMode>manual</evaluationMode>
      <creationInfo>
        <agencyID>TX</agencyID>
        <creationTime>2022-11-16T21:52:49.515518Z</creationTime>
      </creationInfo>
    </pick>
    <pick publicID="Pick/20221117165346.007912.115341">
      <time>
        <value>2022-11-16T21:32:52.005122Z</value>
        <lowerUncertainty>0.1000000015</lowerUncertainty>
        <upperUncertainty>0.1000000015</upperUncertainty>
      </time>
      <waveformID networkCode="TX" stationCode="PB36" locationCode="00" channelCode="HN1"/>
      <phaseHint>P</phaseHint>
      <evaluationMode>manual</evaluationMode>
      <creationInfo>
        <agencyID>TX</agencyID>
        <creationTime>2022-11-17T16:53:46.007927Z</creationTime>
      </creationInfo>
    </pick>
    <pick publicID="Pick/20221117165346.00795.115342">
      <time>
        <value>2022-11-16T21:32:56.977910Z</value>
        <lowerUncertainty>0.3000000119</lowerUncertainty>
        <upperUncertainty>0.3000000119</upperUncertainty>
      </time>
      <waveformID networkCode="TX" stationCode="PB36" locationCode="00" channelCode="HN2"/>
      <phaseHint>S</phaseHint>
      <evaluationMode>manual</evaluationMode>
      <creationInfo>
        <agencyID>TX</agencyID>
        <creationTime>2022-11-17T16:53:46.007965Z</creationTime>
      </creationInfo>
    </pick>
    <pick publicID="Pick/20221117020158.51843.74666">
      <time>
        <value>2022-11-16T21:32:56.509409Z</value>
      </time>
      <waveformID networkCode="TX" stationCode="PB35" locationCode="00" channelCode="HH1"/>
      <phaseHint>S</phaseHint>
      <evaluationMode>manual</evaluationMode>
      <creationInfo>
        <agencyID>TX</agencyID>
        <creationTime>2022-11-17T02:01:58.518444Z</creationTime>
      </creationInfo>
    </pick>
    <pick publicID="Pick/20221117020158.51849.74667">
      <time>
        <value>2022-11-16T21:32:57.236992Z</value>
      </time>
      <waveformID networkCode="TX" stationCode="PB38" locationCode="00" channelCode="HH1"/>
      <phaseHint>S</phaseHint>
      <evaluationMode>manual</evaluationMode>
      <creationInfo>
        <agencyID>TX</agencyID>
        <creationTime>2022-11-17T02:01:58.518503Z</creationTime>
      </creationInfo>
    </pick>
    <pick publicID="Pick/20221117020158.518706.74670">
      <time>
        <value>2022-11-16T21:32:57.389218Z</value>
      </time>
      <waveformID networkCode="4O" stationCode="SA07" locationCode="00" channelCode="HHE"/>
      <phaseHint>S</phaseHint>
      <evaluationMode>manual</evaluationMode>
      <creationInfo>
        <agencyID>TX</agencyID>
        <creationTime>2022-11-17T02:01:58.518721Z</creationTime>
      </creationInfo>
    </pick>
    <pick publicID="Pick/20221117020158.519003.74673">
      <time>
        <value>2022-11-16T21:32:59.026115Z</value>
      </time>
      <waveformID networkCode="TX" stationCode="PB28" locationCode="00" channelCode="HH2"/>
      <phaseHint>S</phaseHint>
      <evaluationMode>manual</evaluationMode>
      <creationInfo>
        <agencyID>TX</agencyID>
        <creationTime>2022-11-17T02:01:58.519018Z</creationTime>
      </creationInfo>
    </pick>
    <pick publicID="Pick/20221117020158.51915.74674">
      <time>
        <value>2022-11-16T21:32:59.905770Z</value>
      </time>
      <waveformID networkCode="TX" stationCode="PB37" locationCode="00" channelCode="HH1"/>
      <phaseHint>S</phaseHint>
      <evaluationMode>manual</evaluationMode>
      <creationInfo>
        <agencyID>TX</agencyID>
        <creationTime>2022-11-17T02:01:58.519163Z</creationTime>
      </creationInfo>
    </pick>
    <pick publicID="Pick/20221117164826.533235.115009">
      <time>
        <value>2022-11-16T21:32:50.399685Z</value>
        <lowerUncertainty>0.1000000015</lowerUncertainty>
        <upperUncertainty>0.1000000015</upperUncertainty>
      </time>
      <waveformID networkCode="TX" stationCode="PECS" locationCode="00" channelCode="HN1"/>
      <phaseHint>P</phaseHint>
      <evaluationMode>manual</evaluationMode>
      <creationInfo>
        <agencyID>TX</agencyID>
        <creationTime>2022-11-17T16:48:26.533272Z</creationTime>
      </creationInfo>
    </pick>
    <pick publicID="Pick/20221117164826.533355.115012">
      <time>
        <value>2022-11-16T21:32:50.722062Z</value>
      </time>
      <waveformID networkCode="TX" stationCode="PB07" locationCode="00" channelCode="HNZ"/>
      <phaseHint>P</phaseHint>
      <evaluationMode>manual</evaluationMode>
      <creationInfo>
        <agencyID>TX</agencyID>
        <creationTime>2022-11-17T16:48:26.533369Z</creationTime>
      </creationInfo>
    </pick>
    <pick publicID="Pick/20221117165346.007624.115339">
      <time>
        <value>2022-11-16T21:32:50.899369Z</value>
      </time>
      <waveformID networkCode="TX" stationCode="PB11" locationCode="00" channelCode="HNZ"/>
      <phaseHint>P</phaseHint>
      <evaluationMode>manual</evaluationMode>
      <creationInfo>
        <agencyID>TX</agencyID>
        <creationTime>2022-11-17T16:53:46.007642Z</creationTime>
      </creationInfo>
    </pick>
    <pick publicID="Pick/20221117164826.533295.115010">
      <time>
        <value>2022-11-16T21:32:54.676552Z</value>
        <lowerUncertainty>0.200000003</lowerUncertainty>
        <upperUncertainty>0.200000003</upperUncertainty>
      </time>
      <waveformID networkCode="TX" stationCode="PECS" locationCode="00" channelCode="HN1"/>
      <phaseHint>S</phaseHint>
      <evaluationMode>manual</evaluationMode>
      <creationInfo>
        <agencyID>TX</agencyID>
        <creationTime>2022-11-17T16:48:26.533307Z</creationTime>
      </creationInfo>
    </pick>
    <pick publicID="Pick/20221116215503.577692.88048">
      <time>
