NLLOC "/home/emmanuel/ecastillo/dev/delaware/21092024/output/nlloc_test_08102024/nlloc/SeisMonitor.20221116.213246.grid0" "LOCATED" "Location completed."
PUBLIC_ID None
SIGNATURE "SeisMonitor   obs:/home/emmanuel/ecastillo/dev/delaware/21092024/output/nlloc_test_08102024/catalog_input.inp   NLLoc:v7.1.04(05Sep2024)   run:09Oct2024 00h47m38"
COMMENT "Comment"
GRID  99 57 22  -49.64 -28.77 -2  1 1 1 PROB_DENSITY
SEARCH OCTREE nInitial 15022 nEvaluated 100014 smallestNodeSide 0.041385/0.015086/0.046875 oct_tree_integral 2.948496e+00 scatter_volume 2.928316e+00
HYPOCENTER  x 30.5851 y -2.30125 z 4.53906  OT 44.7563  ix -1 iy -1 iz -1 MAXIMUM_LIKELIHOOD
GEOGRAPHIC  OT 2022 11 16  21 32 44.756326  Lat 31.634879 Long -103.998293 Depth 4.539062
QUALITY  Pmax 6.92777e+31 MFmin 18.2651 MFmax 18.9916 RMS 0.0798625 Nphs 13 Gap 94.6965 Dist 2.49025 Mamp  5.40 1 Mdur -9.90 0
VPVSRATIO  VpVsRatio 1.79183  Npair 3  Diff 0.213
STATISTICS  ExpectX 30.529573 Y -2.363716 Z 4.725389  CovXX 0.182966 XY 0.0336105 XZ -0.0177402 YY 0.298662 YZ -0.188468 ZZ 1.47445 EllAz1  287.503 Dip1  1.74992 Len1  0.78132 Az2  17.7734 Dip2  8.79047 Len2  0.992105 Len3  2.304390e+00
STAT_GEOG  ExpectLat 31.634318 Long -103.998881 Depth 4.725389
TRANSFORM  SIMPLE LatOrig 31.655575  LongOrig -104.321355  RotCW 0.000000
QML_OriginQuality  assocPhCt 13  usedPhCt 13  assocStaCt -1  usedStaCt 10  depthPhCt -1  stdErr 0.0798625  azGap 94.6965  secAzGap 145.779  gtLevel -  minDist 2.49025 maxDist 13.5604 medDist 6.96032
QML_OriginUncertainty  horUnc -1  minHorUnc 0.632451  maxHorUnc 0.841278  azMaxHorUnc 15.0786
QML_ConfidenceEllipsoid  semiMajorAxisLength 2.30439  semiMinorAxisLength 0.78132  semiIntermediateAxisLength 0.992105  majorAxisPlunge -81.0343  majorAxisAzimuth 6.33715  majorAxisRotation 191.861
FOCALMECH  Hyp  31.634879 -103.998293 4.539062 Mech  0 0 0 mf  0 nObs -1
PHASE ID Ins Cmp On Pha  FM Date     HrMn   Sec     Err  ErrMag    Coda      Amp       Per  >   TTpred    Res       Weight    StaLoc(X  Y         Z)        SDist    SAzim  RAz  RDip RQual    Tcorr 
PB24   H    Z    ? P      ? 20221116 2132   46.1580 GAU  1.00e-01 -1.00e+00 -1.00e+00 -1.00e+00 >    1.3570    0.0447    1.1722   28.7239   -3.9558   -0.9970    2.4902 228.36 228.5 150.3  8     0.0000
WB03   H    N    ? P      ? 20221116 2132   46.2570 GAU  1.00e-01 -1.00e+00 -1.00e+00 -1.00e+00 >    1.4973    0.0034    1.1978   33.3668   -4.9565   -0.9940    3.8456 133.67 133.1 140.1  9     0.0000
PB34   H    Z    ? P      ? 20221116 2132   46.6500 GAU  1.00e-01 -1.00e+00 -1.00e+00 -1.00e+00 >    1.7775    0.1162    0.9808   26.8137    2.3824   -0.9690    6.0133 321.16 321.3 124.8  9     0.0000
PB34   H    1    ? S      ? 20221116 2132   47.9480 GAU  1.00e-01 -1.00e+00 -1.00e+00 -1.00e+00 >    3.1640    0.0277    1.0094   26.8137    2.3824   -0.9690    6.0133 321.16 321.3 124.8  9     0.0000
PB20   H    N    ? P      ? 20221116 2132   46.5740 GAU  1.00e-01 -1.00e+00 -1.00e+00 -1.00e+00 >    1.7953    0.0223    1.1612   24.5556   -3.0662   -1.0220    6.0778 262.77 261.1 123.4  8     0.0000
PB40   H    Z    ? P      D 20221116 2132   46.5370 GAU  1.00e-01 -1.00e+00 -1.00e+00 -1.00e+00 >    1.7854   -0.0048    1.1725   36.6690   -1.5095   -0.9350    6.1352  82.59  81.4 123.0  8     0.0000
PB40   H    2    ? S      ? 20221116 2132   47.8260 GAU  1.00e-01 -1.00e+00 -1.00e+00 -1.00e+00 >    3.1781   -0.1084    0.9309   36.6690   -1.5095   -0.9350    6.1352  82.59  81.4 123.0  8     0.0000
PB23   H    N    ? P      C 20221116 2132   46.8060 GAU  1.00e-01 -1.00e+00 -1.00e+00 -1.00e+00 >    2.0637   -0.0141    1.1431   23.5050    0.9368   -1.0050    7.7854 294.58 294.1 115.7  9     0.0000
PB23   H    E    ? S      ? 20221116 2132   48.3080 GAU  1.00e-01 -1.00e+00 -1.00e+00 -1.00e+00 >    3.6734   -0.1218    0.8698   23.5050    0.9368   -1.0050    7.7854 294.58 294.1 115.7  9     0.0000
PB25   H    N    ? P      ? 20221116 2132   46.9190 GAU  1.00e-01 -1.00e+00 -1.00e+00 -1.00e+00 >    2.2505   -0.0878    1.0444   23.8096   -8.0700   -1.0370    8.8986 229.59 231.1 112.8  9     0.0000
PB31   H    1    ? P      ? 20221116 2132   47.3490 GAU  1.00e-01 -1.00e+00 -1.00e+00 -1.00e+00 >    2.6367   -0.0441    1.0648   27.4598    8.4981   -0.9070   11.2425 343.86 342.9 107.3  9     0.0000
WB02   H    N    ? P      ? 20221116 2132   47.5180 GAU  1.00e-01 -1.00e+00 -1.00e+00 -1.00e+00 >    2.8294   -0.0677    1.0208   35.5916    8.9429   -0.9320   12.3084  24.00  23.1 105.9  9     0.0000
PB43   H    2    ? S      ? 20221116 2132   50.5860 GAU  1.00e-01 -1.00e+00 -1.00e+00 -1.00e+00 >    5.3220    0.5077    0.2322   43.1832    2.7159   -0.8960   13.5604  68.29  68.2 104.4  9     0.0000
END_PHASE
END_NLLOC

