NLLOC "/home/emmanuel/ecastillo/dev/delaware/21092024/output/nlloc_test_08102024/nlloc/SeisMonitor.20221116.213246.grid0" "LOCATED" "Location completed."
PUBLIC_ID None
SIGNATURE "SeisMonitor   obs:/home/emmanuel/ecastillo/dev/delaware/21092024/output/nlloc_test_08102024/catalog_input.inp   NLLoc:v7.1.04(05Sep2024)   run:09Oct2024 00h32m02"
COMMENT "Comment"
GRID  99 57 22  -49.64 -28.77 -2  1 1 1 PROB_DENSITY
SEARCH OCTREE nInitial 15022 nEvaluated 100014 smallestNodeSide 0.041385/0.015086/0.046875 oct_tree_integral 3.340853e+00 scatter_volume 3.322216e+00
HYPOCENTER  x 30.0471 y -2.34651 z 6.32031  OT 44.5437  ix -1 iy -1 iz -1 MAXIMUM_LIKELIHOOD
GEOGRAPHIC  OT 2022 11 16  21 32 44.543721  Lat 31.634472 Long -104.003977 Depth 6.320312
QUALITY  Pmax 6.86261e+93 MFmin 34.6903 MFmax 35.7163 RMS 0.213699 Nphs 32 Gap 47.1706 Dist 2.08337 Mamp  5.40 1 Mdur -9.90 0
VPVSRATIO  VpVsRatio 1.64957  Npair 7  Diff 3.684
STATISTICS  ExpectX 29.631072 Y -2.282375 Z 7.320111  CovXX 0.3725 XY -0.0193262 XZ -0.433058 YY 0.184229 YZ 0.0512992 ZZ 1.61658 EllAz1  3.68462 Dip1  -0.933111 Len1  0.801859 Az2  273.39 Dip2  -17.5107 Len2  0.914228 Len3  2.488570e+00
STAT_GEOG  ExpectLat 31.635049 Long -104.008369 Depth 7.320111
TRANSFORM  SIMPLE LatOrig 31.655575  LongOrig -104.321355  RotCW 0.000000
QML_OriginQuality  assocPhCt 68  usedPhCt 32  assocStaCt -1  usedStaCt 25  depthPhCt -1  stdErr 0.213699  azGap 47.1706  secAzGap 74.8858  gtLevel -  minDist 2.08337 maxDist 50.4554 medDist 14.0779
QML_OriginUncertainty  horUnc -1  minHorUnc 0.647464  maxHorUnc 0.928044  azMaxHorUnc 95.8009
QML_ConfidenceEllipsoid  semiMajorAxisLength 2.48857  semiMinorAxisLength 0.801859  semiIntermediateAxisLength 0.914228  majorAxisPlunge -72.4629  majorAxisAzimuth 96.639  majorAxisRotation 176.216
FOCALMECH  Hyp  31.634472 -104.003977 6.320312 Mech  0 0 0 mf  0 nObs -1
PHASE ID Ins Cmp On Pha  FM Date     HrMn   Sec     Err  ErrMag    Coda      Amp       Per  >   TTpred    Res       Weight    StaLoc(X  Y         Z)        SDist    SAzim  RAz  RDip RQual    Tcorr 
PB24   H    Z    ? P      ? 20221116 2132   46.1580 GAU  1.00e-01 -1.00e+00 -1.00e+00 -1.00e+00 >    1.6172   -0.0029    1.5542   28.7239   -3.9558   -0.9970    2.0834 219.43 219.4 158.8  8     0.0000
WB03   H    N    ? P      ? 20221116 2132   46.2570 GAU  1.00e-01 -1.00e+00 -1.00e+00 -1.00e+00 >    1.7952   -0.0819    1.4848   33.3668   -4.9565   -0.9940    4.2229 128.17 128.4 145.1  9     0.0000
PB20   H    N    ? P      ? 20221116 2132   46.5740 GAU  1.00e-01 -1.00e+00 -1.00e+00 -1.00e+00 >    1.9371    0.0932    1.3981   24.5556   -3.0662   -1.0220    5.5385 262.53 259.9 138.5  8     0.0000
PB34   H    Z    ? P      ? 20221116 2132   46.6500 GAU  1.00e-01 -1.00e+00 -1.00e+00 -1.00e+00 >    1.9523    0.1540    1.2220   26.8137    2.3824   -0.9690    5.7286 325.64 324.4 136.5  9     0.0000
PB34   H    1    ? S      ? 20221116 2132   47.9480 GAU  1.00e-01 -1.00e+00 -1.00e+00 -1.00e+00 >    3.4751   -0.0709    1.3502   26.8137    2.3824   -0.9690    5.7286 325.64 324.4 136.5  9     0.0000
PB40   H    Z    ? P      D 20221116 2132   46.5370 GAU  1.00e-01 -1.00e+00 -1.00e+00 -1.00e+00 >    2.0568   -0.0635    1.4902   36.6690   -1.5095   -0.9350    6.6746  82.80  81.0 131.1  8     0.0000
PB40   H    2    ? S      ? 20221116 2132   47.8260 GAU  1.00e-01 -1.00e+00 -1.00e+00 -1.00e+00 >    3.6611   -0.3788    0.7920   36.6690   -1.5095   -0.9350    6.6746  82.80  81.0 131.1  8     0.0000
PB23   H    N    ? P      C 20221116 2132   46.8060 GAU  1.00e-01 -1.00e+00 -1.00e+00 -1.00e+00 >    2.1653    0.0970    1.3728   23.5050    0.9368   -1.0050    7.3198 296.65 297.2 128.1  9     0.0000
PB23   H    E    ? S      ? 20221116 2132   48.3080 GAU  1.00e-01 -1.00e+00 -1.00e+00 -1.00e+00 >    3.8542   -0.0899    1.2987   23.5050    0.9368   -1.0050    7.3198 296.65 297.2 128.1  9     0.0000
PB25   H    N    ? P      ? 20221116 2132   46.9190 GAU  1.00e-01 -1.00e+00 -1.00e+00 -1.00e+00 >    2.3331    0.0422    1.4556   23.8096   -8.0700   -1.0370    8.4655 227.46 228.5 123.1  9     0.0000
WB01   H    Z    ? P      ? 20221116 2132   47.3610 GAU  1.00e-01 -1.00e+00 -1.00e+00 -1.00e+00 >    2.7233    0.0939    1.3342   24.7199    7.3861   -0.9270   11.0952 331.31 332.4 111.6  9     0.0000
WB01   H    N    ? S      ? 20221116 2132   49.2780 GAU  1.00e-01 -1.00e+00 -1.00e+00 -1.00e+00 >    4.8476   -0.1133    1.1894   24.7199    7.3861   -0.9270   11.0952 331.31 332.4 111.6  9     0.0000
PB31   H    1    ? P      ? 20221116 2132   47.3490 GAU  1.00e-01 -1.00e+00 -1.00e+00 -1.00e+00 >    2.7308    0.0745    1.3694   27.4598    8.4981   -0.9070   11.1489 346.58 345.1 111.2  9     0.0000
PB33   H    Z    ? P      ? 20221116 2132   47.3960 GAU  1.00e-01 -1.00e+00 -1.00e+00 -1.00e+00 >    2.8993   -0.0471    1.4237   25.3383  -13.4073   -1.0060   12.0214 203.06 202.8 109.0  9     0.0000
PB33   H    2    ? S      ? 20221116 2132   49.7790 GAU  1.00e-01 -1.00e+00 -1.00e+00 -1.00e+00 >    5.1608    0.0745    1.1298   25.3383  -13.4073   -1.0060   12.0214 203.06 202.8 109.0  9     0.0000
WB02   H    N    ? P      ? 20221116 2132   47.5180 GAU  1.00e-01 -1.00e+00 -1.00e+00 -1.00e+00 >    2.9743    0.0000    1.4187   35.5916    8.9429   -0.9320   12.5774  26.16  25.0 108.0  9     0.0000
WB04   H    N    ? P      ? 20221116 2132   47.3990 GAU  1.00e-01 -1.00e+00 -1.00e+00 -1.00e+00 >    2.9900   -0.1347    1.3169   35.1963  -13.8521   -0.9620   12.6053 155.89 156.7 108.0  9     0.0000
PB43   H    Z    ? P      C 20221116 2132   47.6850 GAU  1.00e-01 -1.00e+00 -1.00e+00 -1.00e+00 >    3.2176   -0.0764    1.3719   43.1832    2.7159   -0.8960   14.0779  68.92  68.8 105.0  9     0.0000
PB43   H    2    ? S      ? 20221116 2132   50.5860 GAU  1.00e-01 -1.00e+00 -1.00e+00 -1.00e+00 >    5.7274    0.3149    0.7364   43.1832    2.7159   -0.8960   14.0779  68.92  68.8 105.0  9     0.0000
PB13   H    N    ? S      ? 20221116 2132   51.0570 GAU  1.00e-01 -1.00e+00 -1.00e+00 -1.00e+00 >    6.6473   -0.1341    1.0315   45.0421  -11.2946   -0.9560   17.4619 120.83 119.7  99.7  9     0.0000
SA06   H    E    ? S      ? 20221116 2132   51.1020 GAU  1.00e-01 -1.00e+00 -1.00e+00 -1.00e+00 >    7.1136   -0.5553    0.6228   16.2012   11.2780   -0.7600   19.4251 314.54 314.6  97.5  8     0.0000
WB05   H    N    ? S      ? 20221116 2132   52.0760 GAU  1.00e-01 -1.00e+00 -1.00e+00 -1.00e+00 >    7.6000   -0.0677    0.9736   46.1744   10.9444   -0.8550   20.8983  50.51  52.0  95.5  9     0.0000
SA02   H    E    ? S      ? 20221116 2132   52.7740 GAU  1.00e-01 -1.00e+00 -1.00e+00 -1.00e+00 >    8.8244   -0.5941    0.6040    5.3331    1.8264   -0.7600   25.0638 279.58 280.7  89.6  9     0.0000
CV01   H    E    ? S      ? 20221116 2132   53.1070 GAU  1.00e-01 -1.00e+00 -1.00e+00 -1.00e+00 >    8.9877   -0.4244    0.7377   21.9466   21.6191   -0.9830   25.2976 341.32 341.0  89.5  9     0.0000
SA04   H    N    ? S      ? 20221116 2132   53.5050 GAU  1.00e-01 -1.00e+00 -1.00e+00 -1.00e+00 >    9.5090   -0.5477    0.6400    6.2738   11.1668   -0.7600   27.3455 299.61 298.9  87.5  8     0.0000
PB36   H    1    ? P      ? 20221116 2132   52.0050 GAU  1.00e-01 -1.00e+00 -1.00e+00 -1.00e+00 >    7.7032   -0.2419    0.9090   -9.9022    2.7159   -1.2180   40.2687 277.22 278.3  85.0  8     0.0000
PB36   H    2    ? S      ? 20221116 2132   56.9780 GAU  1.00e-01 -1.00e+00 -1.00e+00 -1.00e+00 >   13.7116   -1.2773    0.2808   -9.9022    2.7159   -1.2180   40.2687 277.22 278.3  85.0  8     0.0000
PB35   H    1    ? S      ? 20221116 2132   56.5090 GAU  1.00e-01 -1.00e+00 -1.00e+00 -1.00e+00 >   13.5737   -1.6084    0.1772  -10.4726    0.0473   -1.2240   40.5904 273.38 274.8  85.0  8     0.0000
PB38   H    1    ? S      ? 20221116 2132   57.2370 GAU  1.00e-01 -1.00e+00 -1.00e+00 -1.00e+00 >   13.8578   -1.1645    0.3253   -9.9914    8.2757   -1.2400   41.4236 284.86 285.4  84.9  8     0.0000
SA07   H    E    ? S      ? 20221116 2132   57.3890 GAU  1.00e-01 -1.00e+00 -1.00e+00 -1.00e+00 >   14.1782   -1.3329    0.2669   -4.1217   23.3982   -1.1030   42.7819 307.00 306.1  84.8  8     0.0000
PB28   H    2    ? S      ? 20221116 2132   59.0260 GAU  1.00e-01 -1.00e+00 -1.00e+00 -1.00e+00 >   15.5298   -1.0475    0.3815  -17.0012    1.4928   -1.2040   47.2046 274.67 275.7  84.6  8     0.0000
PB37   H    1    ? S      ? 20221116 2132   59.9060 GAU  1.00e-01 -1.00e+00 -1.00e+00 -1.00e+00 >   16.5365   -1.1743    0.3408  -19.5461    6.9414   -1.2630   50.4554 280.61 281.2  84.5  8     0.0000
PECS   H    1    ? P      ? 20221116 2132   50.4000 GAU  1.00e-01 -1.00e+00 -1.00e+00 -1.00e+00 >    0.0000    0.0000    0.0000 -100000000000000000000.0000 -100000000000000000000.0000 -100000000000000000000.0000    0.0000   0.00 359.0  -1.0  0     0.0000
PB07   H    Z    ? P      ? 20221116 2132   50.7220 GAU  1.00e-01 -1.00e+00 -1.00e+00 -1.00e+00 >    0.0000    0.0000    0.0000 -100000000000000000000.0000 -100000000000000000000.0000 -100000000000000000000.0000    0.0000   0.00 359.0  -1.0  0     0.0000
PB11   H    Z    ? P      ? 20221116 2132   50.8990 GAU  1.00e-01 -1.00e+00 -1.00e+00 -1.00e+00 >    0.0000    0.0000    0.0000 -100000000000000000000.0000 -100000000000000000000.0000 -100000000000000000000.0000    0.0000   0.00 359.0  -1.0  0     0.0000
PECS   H    1    ? S      ? 20221116 2132   54.3930 GAU  1.00e-01 -1.00e+00 -1.00e+00 -1.00e+00 >    0.0000    0.0000    0.0000 -100000000000000000000.0000 -100000000000000000000.0000 -100000000000000000000.0000    0.0000   0.00 359.0  -1.0  0     0.0000
LWM2   H    Z    ? P      ? 20221116 2132   54.6600 GAU  1.00e-01 -1.00e+00 -1.00e+00 -1.00e+00 >    0.0000    0.0000    0.0000 -100000000000000000000.0000 -100000000000000000000.0000 -100000000000000000000.0000    0.0000   0.00 359.0  -1.0  0     0.0000
CT01   H    E    ? S      ? 20221116 2132   55.2360 GAU  1.00e-01 -1.00e+00 -1.00e+00 -1.00e+00 >    0.0000    0.0000    0.0000   16.6476   27.5124   -0.9940    0.0000   0.00 359.0  -1.0  0     0.0000
PB07   H    2    ? S      ? 20221116 2132   55.5420 GAU  1.00e-01 -1.00e+00 -1.00e+00 -1.00e+00 >    0.0000    0.0000    0.0000 -100000000000000000000.0000 -100000000000000000000.0000 -100000000000000000000.0000    0.0000   0.00 359.0  -1.0  0     0.0000
PB11   H    2    ? S      ? 20221116 2132   55.7720 GAU  1.00e-01 -1.00e+00 -1.00e+00 -1.00e+00 >    0.0000    0.0000    0.0000 -100000000000000000000.0000 -100000000000000000000.0000 -100000000000000000000.0000    0.0000   0.00 359.0  -1.0  0     0.0000
CT02   H    N    ? S      ? 20221116 2132   56.6880 GAU  1.00e-01 -1.00e+00 -1.00e+00 -1.00e+00 >    0.0000    0.0000    0.0000 -100000000000000000000.0000 -100000000000000000000.0000 -100000000000000000000.0000    0.0000   0.00 359.0  -1.0  0     0.0000
PB42   H    E    ? S      ? 20221116 2132   56.9090 GAU  1.00e-01 -1.00e+00 -1.00e+00 -1.00e+00 >    0.0000    0.0000    0.0000 -100000000000000000000.0000 -100000000000000000000.0000 -100000000000000000000.0000    0.0000   0.00 359.0  -1.0  0     0.0000
CL2B   E    ?    ? P      ? 20221116 2132   56.9930 GAU  1.00e-01 -1.00e+00 -1.00e+00 -1.00e+00 >    0.0000    0.0000    0.0000 -100000000000000000000.0000 -100000000000000000000.0000 -100000000000000000000.0000    0.0000   0.00 359.0  -1.0  0     0.0000
WB12   H    N    ? S      ? 20221116 2132   57.4210 GAU  1.00e-01 -1.00e+00 -1.00e+00 -1.00e+00 >    0.0000    0.0000    0.0000 -100000000000000000000.0000 -100000000000000000000.0000 -100000000000000000000.0000    0.0000   0.00 359.0  -1.0  0     0.0000
NMP11  H    E    ? S      ? 20221116 2132   58.2180 GAU  1.00e-01 -1.00e+00 -1.00e+00 -1.00e+00 >    0.0000    0.0000    0.0000 -100000000000000000000.0000 -100000000000000000000.0000 -100000000000000000000.0000    0.0000   0.00 359.0  -1.0  0     0.0000
WB11   H    E    ? S      ? 20221116 2132   58.7070 GAU  1.00e-01 -1.00e+00 -1.00e+00 -1.00e+00 >    0.0000    0.0000    0.0000 -100000000000000000000.0000 -100000000000000000000.0000 -100000000000000000000.0000    0.0000   0.00 359.0  -1.0  0     0.0000
PB10   H    1    ? S      ? 20221116 2132   58.7210 GAU  1.00e-01 -1.00e+00 -1.00e+00 -1.00e+00 >    0.0000    0.0000    0.0000 -100000000000000000000.0000 -100000000000000000000.0000 -100000000000000000000.0000    0.0000   0.00 359.0  -1.0  0     0.0000
PB12   H    E    ? S      ? 20221116 2132   58.7330 GAU  1.00e-01 -1.00e+00 -1.00e+00 -1.00e+00 >    0.0000    0.0000    0.0000 -100000000000000000000.0000 -100000000000000000000.0000 -100000000000000000000.0000    0.0000   0.00 359.0  -1.0  0     0.0000
WB10   H    N    ? S      ? 20221116 2132   59.1610 GAU  1.00e-01 -1.00e+00 -1.00e+00 -1.00e+00 >    0.0000    0.0000    0.0000 -100000000000000000000.0000 -100000000000000000000.0000 -100000000000000000000.0000    0.0000   0.00 359.0  -1.0  0     0.0000
WB09   H    E    ? S      ? 20221116 2132   59.7850 GAU  1.00e-01 -1.00e+00 -1.00e+00 -1.00e+00 >    0.0000    0.0000    0.0000 -100000000000000000000.0000 -100000000000000000000.0000 -100000000000000000000.0000    0.0000   0.00 359.0  -1.0  0     0.0000
DG02   C    1    ? S      ? 20221116 2133    0.2680 GAU  1.00e-01 -1.00e+00 -1.00e+00 -1.00e+00 >    0.0000    0.0000    0.0000 -100000000000000000000.0000 -100000000000000000000.0000 -100000000000000000000.0000    0.0000   0.00 359.0  -1.0  0     0.0000
DG07   C    1    ? S      ? 20221116 2133    0.4110 GAU  1.00e-01 -1.00e+00 -1.00e+00 -1.00e+00 >    0.0000    0.0000    0.0000 -100000000000000000000.0000 -100000000000000000000.0000 -100000000000000000000.0000    0.0000   0.00 359.0  -1.0  0     0.0000
PCOS   H    E    ? S      ? 20221116 2133    1.2450 GAU  1.00e-01 -1.00e+00 -1.00e+00 -1.00e+00 >    0.0000    0.0000    0.0000 -100000000000000000000.0000 -100000000000000000000.0000 -100000000000000000000.0000    0.0000   0.00 359.0  -1.0  0     0.0000
DG08   C    1    ? S      ? 20221116 2133    1.3290 GAU  1.00e-01 -1.00e+00 -1.00e+00 -1.00e+00 >    0.0000    0.0000    0.0000 -100000000000000000000.0000 -100000000000000000000.0000 -100000000000000000000.0000    0.0000   0.00 359.0  -1.0  0     0.0000
DG06   C    2    ? S      ? 20221116 2133    1.7900 GAU  1.00e-01 -1.00e+00 -1.00e+00 -1.00e+00 >    0.0000    0.0000    0.0000 -100000000000000000000.0000 -100000000000000000000.0000 -100000000000000000000.0000    0.0000   0.00 359.0  -1.0  0     0.0000
NMP41  H    E    ? S      ? 20221116 2133    1.8010 GAU  1.00e-01 -1.00e+00 -1.00e+00 -1.00e+00 >    0.0000    0.0000    0.0000 -100000000000000000000.0000 -100000000000000000000.0000 -100000000000000000000.0000    0.0000   0.00 359.0  -1.0  0     0.0000
DG03   C    2    ? S      ? 20221116 2133    2.0190 GAU  1.00e-01 -1.00e+00 -1.00e+00 -1.00e+00 >    0.0000    0.0000    0.0000 -100000000000000000000.0000 -100000000000000000000.0000 -100000000000000000000.0000    0.0000   0.00 359.0  -1.0  0     0.0000
LWM2   H    E    ? S      ? 20221116 2133    2.0680 GAU  1.00e-01 -1.00e+00 -1.00e+00 -1.00e+00 >    0.0000    0.0000    0.0000 -100000000000000000000.0000 -100000000000000000000.0000 -100000000000000000000.0000    0.0000   0.00 359.0  -1.0  0     0.0000
LWM1   H    E    ? S      ? 20221116 2133    2.1950 GAU  1.00e-01 -1.00e+00 -1.00e+00 -1.00e+00 >    0.0000    0.0000    0.0000 -100000000000000000000.0000 -100000000000000000000.0000 -100000000000000000000.0000    0.0000   0.00 359.0  -1.0  0     0.0000
PDB    H    E    ? S      ? 20221116 2133    3.7690 GAU  1.00e-01 -1.00e+00 -1.00e+00 -1.00e+00 >    0.0000    0.0000    0.0000 -100000000000000000000.0000 -100000000000000000000.0000 -100000000000000000000.0000    0.0000   0.00 359.0  -1.0  0     0.0000
NMP23  H    E    ? S      ? 20221116 2133    4.1900 GAU  1.00e-01 -1.00e+00 -1.00e+00 -1.00e+00 >    0.0000    0.0000    0.0000 -100000000000000000000.0000 -100000000000000000000.0000 -100000000000000000000.0000    0.0000   0.00 359.0  -1.0  0     0.0000
NMP51  H    N    ? S      ? 20221116 2133    5.1790 GAU  1.00e-01 -1.00e+00 -1.00e+00 -1.00e+00 >    0.0000    0.0000    0.0000 -100000000000000000000.0000 -100000000000000000000.0000 -100000000000000000000.0000    0.0000   0.00 359.0  -1.0  0     0.0000
PB06   H    1    ? S      ? 20221116 2133    6.1860 GAU  1.00e-01 -1.00e+00 -1.00e+00 -1.00e+00 >    0.0000    0.0000    0.0000 -100000000000000000000.0000 -100000000000000000000.0000 -100000000000000000000.0000    0.0000   0.00 359.0  -1.0  0     0.0000
PB30   H    N    ? S      ? 20221116 2133    7.2040 GAU  1.00e-01 -1.00e+00 -1.00e+00 -1.00e+00 >    0.0000    0.0000    0.0000 -100000000000000000000.0000 -100000000000000000000.0000 -100000000000000000000.0000    0.0000   0.00 359.0  -1.0  0     0.0000
PB03   H    1    ? S      ? 20221116 2133    7.3040 GAU  1.00e-01 -1.00e+00 -1.00e+00 -1.00e+00 >    0.0000    0.0000    0.0000 -100000000000000000000.0000 -100000000000000000000.0000 -100000000000000000000.0000    0.0000   0.00 359.0  -1.0  0     0.0000
PB05   H    1    ? S      ? 20221116 2133   14.3270 GAU  1.00e-01 -1.00e+00 -1.00e+00 -1.00e+00 >    0.0000    0.0000    0.0000 -100000000000000000000.0000 -100000000000000000000.0000 -100000000000000000000.0000    0.0000   0.00 359.0  -1.0  0     0.0000
PB22   H    1    ? S      ? 20221116 2133   15.2950 GAU  1.00e-01 -1.00e+00 -1.00e+00 -1.00e+00 >    0.0000    0.0000    0.0000 -100000000000000000000.0000 -100000000000000000000.0000 -100000000000000000000.0000    0.0000   0.00 359.0  -1.0  0     0.0000
DB03   H    E    ? S      ? 20221116 2133   15.4580 GAU  1.00e-01 -1.00e+00 -1.00e+00 -1.00e+00 >    0.0000    0.0000    0.0000 -100000000000000000000.0000 -100000000000000000000.0000 -100000000000000000000.0000    0.0000   0.00 359.0  -1.0  0     0.0000
END_PHASE
END_NLLOC

