NLLOC "/home/emmanuel/ecastillo/dev/delaware/21092024/output/nlloc_test_08102024/nlloc/SeisMonitor.20221116.213246.grid0" "LOCATED" "Location completed."
PUBLIC_ID None
SIGNATURE "SeisMonitor   obs:/home/emmanuel/ecastillo/dev/delaware/21092024/output/nlloc_test_08102024/catalog_input.inp   NLLoc:v7.1.04(05Sep2024)   run:09Oct2024 00h41m52"
COMMENT "Comment"
GRID  99 57 22  -49.64 -28.77 -2  1 1 1 PROB_DENSITY
SEARCH OCTREE nInitial 15022 nEvaluated 100014 smallestNodeSide 0.041385/0.015086/0.046875 oct_tree_integral 1.811262e+00 scatter_volume 1.803623e+00
HYPOCENTER  x 30.5851 y -2.4672 z 5.05469  OT 44.6786  ix -1 iy -1 iz -1 MAXIMUM_LIKELIHOOD
GEOGRAPHIC  OT 2022 11 16  21 32 44.678575  Lat 31.633387 Long -103.998298 Depth 5.054688
QUALITY  Pmax 3.38857e+52 MFmin 26.0347 MFmax 26.8197 RMS 0.0890346 Nphs 19 Gap 50.7706 Dist 2.38322 Mamp  5.40 1 Mdur -9.90 0
VPVSRATIO  VpVsRatio 2.3483  Npair 6  Diff 1.612
STATISTICS  ExpectX 30.535249 Y -2.477122 Z 5.209936  CovXX 0.150931 XY 0.00908029 XZ -0.0545314 YY 0.143117 YZ -0.0231554 ZZ 1.02547 EllAz1  324.157 Dip1  -0.84869 Len1  0.695373 Az2  234.101 Dip2  -3.78721 Len2  0.735022 Len3  1.906328e+00
STAT_GEOG  ExpectLat 31.633298 Long -103.998824 Depth 5.209936
TRANSFORM  SIMPLE LatOrig 31.655575  LongOrig -104.321355  RotCW 0.000000
QML_OriginQuality  assocPhCt 19  usedPhCt 19  assocStaCt -1  usedStaCt 13  depthPhCt -1  stdErr 0.0890346  azGap 50.7706  secAzGap 83.5449  gtLevel -  minDist 2.38322 maxDist 13.6227 medDist 8.79192
QML_OriginUncertainty  horUnc -1  minHorUnc 0.561622  maxHorUnc 0.600742  azMaxHorUnc 56.6398
QML_ConfidenceEllipsoid  semiMajorAxisLength 1.90633  semiMinorAxisLength 0.695373  semiIntermediateAxisLength 0.735022  majorAxisPlunge -86.1186  majorAxisAzimuth 66.7682  majorAxisRotation 167.247
FOCALMECH  Hyp  31.633387 -103.998298 5.054688 Mech  0 0 0 mf  0 nObs -1
PHASE ID Ins Cmp On Pha  FM Date     HrMn   Sec     Err  ErrMag    Coda      Amp       Per  >   TTpred    Res       Weight    StaLoc(X  Y         Z)        SDist    SAzim  RAz  RDip RQual    Tcorr 
PB24   H    Z    ? P      ? 20221116 2132   46.1580 GAU  1.00e-01 -1.00e+00 -1.00e+00 -1.00e+00 >    1.4296    0.0498    1.1724   28.7239   -3.9558   -0.9970    2.3832 231.35 230.7 153.4  8     0.0000
WB03   H    N    ? P      ? 20221116 2132   46.2570 GAU  1.00e-01 -1.00e+00 -1.00e+00 -1.00e+00 >    1.5575    0.0209    1.1990   33.3668   -4.9565   -0.9940    3.7329 131.82 131.5 143.9  9     0.0000
PB20   H    N    ? P      ? 20221116 2132   46.5740 GAU  1.00e-01 -1.00e+00 -1.00e+00 -1.00e+00 >    1.8434    0.0521    1.1377   24.5556   -3.0662   -1.0220    6.0592 264.33 262.5 128.1  8     0.0000
PB34   H    Z    ? P      ? 20221116 2132   46.6500 GAU  1.00e-01 -1.00e+00 -1.00e+00 -1.00e+00 >    1.8498    0.1216    0.9821   26.8137    2.3824   -0.9690    6.1434 322.13 322.0 128.5  9     0.0000
PB34   H    1    ? S      ? 20221116 2132   47.9480 GAU  1.00e-01 -1.00e+00 -1.00e+00 -1.00e+00 >    3.2926   -0.0232    1.0345   26.8137    2.3824   -0.9690    6.1434 322.13 322.0 128.5  9     0.0000
PB40   H    Z    ? P      D 20221116 2132   46.5370 GAU  1.00e-01 -1.00e+00 -1.00e+00 -1.00e+00 >    1.8412    0.0172    1.1777   36.6690   -1.5095   -0.9350    6.1588  81.05  79.5 127.3  8     0.0000
PB40   H    2    ? S      ? 20221116 2132   47.8260 GAU  1.00e-01 -1.00e+00 -1.00e+00 -1.00e+00 >    3.2773   -0.1299    0.9438   36.6690   -1.5095   -0.9350    6.1588  81.05  79.5 127.3  8     0.0000
PB23   H    N    ? P      C 20221116 2132   46.8060 GAU  1.00e-01 -1.00e+00 -1.00e+00 -1.00e+00 >    2.1163    0.0112    1.1553   23.5050    0.9368   -1.0050    7.8559 295.68 295.2 119.1  9     0.0000
PB23   H    E    ? S      ? 20221116 2132   48.3080 GAU  1.00e-01 -1.00e+00 -1.00e+00 -1.00e+00 >    3.7669   -0.1375    0.8954   23.5050    0.9368   -1.0050    7.8559 295.68 295.2 119.1  9     0.0000
PB25   H    N    ? P      ? 20221116 2132   46.9190 GAU  1.00e-01 -1.00e+00 -1.00e+00 -1.00e+00 >    2.2706   -0.0301    1.1435   23.8096   -8.0700   -1.0370    8.7919 230.41 232.1 116.3  9     0.0000
PB31   H    1    ? P      ? 20221116 2132   47.3490 GAU  1.00e-01 -1.00e+00 -1.00e+00 -1.00e+00 >    2.6928   -0.0223    1.1008   27.4598    8.4981   -0.9070   11.4020 344.09 343.1 109.3  9     0.0000
WB01   H    Z    ? P      ? 20221116 2132   47.3610 GAU  1.00e-01 -1.00e+00 -1.00e+00 -1.00e+00 >    2.7020   -0.0196    1.1001   24.7199    7.3861   -0.9270   11.4669 329.24 330.7 109.1  9     0.0000
WB01   H    N    ? S      ? 20221116 2132   49.2780 GAU  1.00e-01 -1.00e+00 -1.00e+00 -1.00e+00 >    4.8096   -0.2102    0.7293   24.7199    7.3861   -0.9270   11.4669 329.24 330.7 109.1  9     0.0000
PB33   H    Z    ? P      ? 20221116 2132   47.3960 GAU  1.00e-01 -1.00e+00 -1.00e+00 -1.00e+00 >    2.8412   -0.1237    0.9866   25.3383  -13.4073   -1.0060   12.1333 205.62 204.9 108.1  9     0.0000
PB33   H    2    ? S      ? 20221116 2132   49.7790 GAU  1.00e-01 -1.00e+00 -1.00e+00 -1.00e+00 >    5.0573    0.0432    0.8369   25.3383  -13.4073   -1.0060   12.1333 205.62 204.9 108.1  9     0.0000
WB04   H    N    ? P      ? 20221116 2132   47.3990 GAU  1.00e-01 -1.00e+00 -1.00e+00 -1.00e+00 >    2.8617   -0.1413    0.9534   35.1963  -13.8521   -0.9620   12.2833 157.95 158.4 108.0  9     0.0000
WB02   H    N    ? P      ? 20221116 2132   47.5180 GAU  1.00e-01 -1.00e+00 -1.00e+00 -1.00e+00 >    2.8823   -0.0428    1.0739   35.5916    8.9429   -0.9320   12.4601  23.69  22.8 107.7  9     0.0000
PB43   H    Z    ? P      C 20221116 2132   47.6850 GAU  1.00e-01 -1.00e+00 -1.00e+00 -1.00e+00 >    3.0758   -0.0694    1.0359   43.1832    2.7159   -0.8960   13.6227  67.64  67.6 106.0  9     0.0000
PB43   H    2    ? S      ? 20221116 2132   50.5860 GAU  1.00e-01 -1.00e+00 -1.00e+00 -1.00e+00 >    5.4749    0.4325    0.3418   43.1832    2.7159   -0.8960   13.6227  67.64  67.6 106.0  9     0.0000
END_PHASE
END_NLLOC

