 2022 1116 2132 44.4 LQ 31.637-103.999  6.9   TX 70 0.1 5.4L TX                1
 2022 1116 2132 44.481  31.63675 -103.99879    6.903  0.100                    H
 GAP=46     TX             0.3     0.4  0.6  4.0533e-02                        E
     110.4      46.6    -108.4                 0.2                 TX    None  F
 Action:ARG 24-10-09 00:10 OP:OBSP STATUS:               ID:20221116213244     I
 STAT SP IPHASW D HRMM SECON CODA AMPLIT PERI AZIMU VELO AIN AR TRES W  DIS CAZ7
 PB13 HN  IAML  D 213248.230      4691.2                  99    0.0313 17.2 122 
 SA06 HZ  IAML    213248.698      1162.0                  97    0.0710 19.6 313 
 WB05 HZ  IAML    213248.891      1812.6                  97    0.17 9 20.4  50 
 CV01 HN  IAML    213249.499       619.6                  94   -0.0712 25.3 340 
 SA02 HZ  IAML    213249.726       441.9                  94    0.08 8 25.5 279 
 SA04 HN  IAML    213249.923       462.3                  94   -0.0712 27.6 298 
 PECS H1  IAML    213250.324      2693.7                  93   -0.39   32.2 157 
 CT01 HZ  IAML  C 213250.648       465.8                  93   -0.17   32.7 335 
 PB11 H1  IAML  C 213250.746       435.5                  93   -0.18   33.4 354 
 WB12 HN  IAML  C 213251.437      1739.5                  92   -0.0212 36.6  37 
 PB42 HN  IAML  C 213251.606      2339.2                  92    0.1211 36.8  67 
 WB11 HE  IAML    213251.585       929.3                  92   -0.0212 37.5  30 
 CT02 HN  IAML  C 213251.367       378.7                  92   -0.26   37.5 342 
 WB09 HE  IAML  C 213252.195      1131.0                  92    0.0212 40.9  27 
 PB35 H2  IAML    213252.028       248.6                  92   -0.27   41.1 273 
 NMP11HE  IAML  C 213252.262       433.8                  92   -0.0512 41.7   8 
 PB38 H2  IAML    213252.163       273.5                  92   -0.26   41.9 284 
 WB10 HE  IAML  C 213252.368      1489.7                  92    0.0112 41.9  38 
 SA07 HE  IAML    213252.231       145.5                  92   -0.36   43.0 306 
 PB10 H1  IAML    213252.674      3343.0                  92   -0.31   45.7 149 
 PB12 HN  IAML    213252.889      3459.3                  92   -0.41   47.3 175 
 PB28 HZ  IAML    213253.132       251.2                  92   -0.27   47.7 274 
 WB06 HE  IAML  C 213253.331       865.0                  92   -0.0911 48.1  33 
 DG07 CZ  IAML    213253.757      9748.3                  91    0.20 8 49.2 114 
 SA09 HN  IAML    213253.260       137.6                  91   -0.59   50.6 323 
 PB29 H2  IAML    213253.423       198.8                  91   -0.47   50.6 285 
 DG02 C2  IAML    213253.827      1154.6                  91    0.0310 50.6 121 
 NMP31HN  IAML    213253.817       660.5                  91   -0.0911 51.0  29 
 PB37 H2  IAML    213253.607       153.8                  91   -0.37   51.0 280 
 NMP02HN  IAML    213253.966       624.5                  91   -0.1310 52.1  14 
 PCOS HN  IAML    213254.258       948.0                  91    0.08 9 52.9 118 
 DG09 C2  IAML    213254.531      1327.9                  91    0.0310 54.8 122 
 NMP12HN  IAML  C 213254.336       741.0                  91   -0.21 8 54.8   4 
 DG06 C2  IAML    213254.606      6806.1                  91    0.09 9 54.9 117 
 NMP41HN  IAML    213254.501       389.9                  91   -0.24   56.0  42 
 DG08 C1  IAML    213254.283       966.2                  91   -0.47   56.1 152 
 DG03 C2  IAML    213254.794      1968.8                  91    0.05 9 56.1 119 
 LWM1 HZ  IAML    213254.694      4528.5                  91   -0.22 7 57.2 142 
 PDB  HN  IAML    213255.459       156.1                  91   -0.26   61.6  38 
 NMP23HZ  IAML    213255.529       325.5                  91   -0.24   61.9  17 
 NMP01HN  IAML    213255.933       396.0                  91   -0.29   64.6  11 
 DG04 C1  IAML    2133 4.835      1319.7                  91   -1.08   67.9 125 
 NMP51HN  IAML    213256.530       325.2                  91   -0.29   68.3  53 
 GDL2 HN  IAML    213256.699        52.3                  91   -0.75   71.7 331 
 PL01 HN  IAML    213257.203         1.6                  90   -0.32   72.5  56 
 NMP44HN  IAML    213257.236       302.1                  90   -0.37   72.7  29 
 PB06 HZ  IAML    213257.574       229.7                  89   -0.19 8 74.0  89 
 PB30 HZ  IAML  C 213257.976       997.1                  87   -0.0411 75.5 121 
 PB03 HZ  IAML    213257.890       692.4                  85   -0.37   76.9 143 
 PB05 HZ  IAML    2133 1.729       330.3                  77   -0.76    102 141 
 DB03 HZ  IAML  C 2133 2.282       788.4                  77   -0.61    105 123 
 PB22 HZ  IAML  C 2133 1.373       849.1                  77   -1.59    105 116 
 DB04 HZ  IAML    2133 2.443       371.3                  77   -0.63    106 126 
 PB24 HZ  P       213246.158                             158   -0.0412 2.61 223 
 WB03 HN  P       213246.257                             148   -0.0512 4.06 135 
 PB34 HZ  P       213246.650                             138    0.18 9 5.79 320 
 PB34 H1  S       213247.948                             138   -0.0210 5.79 320 
 PB20 HN  P       213246.574                             136    0.0612 6.05 261 
 PB40 HZ  P     D 213246.537                             135    0.0313 6.18  84 
 PB40 H2  S       213247.826                             135   -0.20 8 6.18  84 
 PB23 HN  P     C 213246.806                             126    0.0912 7.64 293 
 PB23 HE  S       213248.308                             126   -0.0812 7.64 293 
 PB25 HN  P       213246.919                             120    0.0013 9.03 228 
 PB31 H1  P       213247.349                             112    0.1610 11.1 344 
 WB01 HZ  P       213247.361                             112    0.15 9 11.1 328 
 WB01 HN  S       213249.278                             112    0.0310 11.1 328 
 WB02 HN  P       213247.518                             109    0.1411 12.2  24 
 PB33 HZ  P       213247.396                             108   -0.0512 12.5 205 
 PB33 H2  S       213249.779                             108    0.1111 12.5 205 
 WB04 HN  P       213247.399                             108   -0.0712 12.7 158 
 PB43 HZ  P     C 213247.685                             106    0.0912 13.6  69 
 PB43 H2  S       213250.586                             106    0.66   13.6  69 
 PB13 HN  S       213251.057                              99    0.0610 17.2 122 
 SA06 HE  S       213251.102                              97   -0.64   19.6 313 
 WB05 HN  S       213252.076                              97    0.17 7 20.4  50 
 CV01 HE  S       213253.107                              94   -0.28   25.3 340 
 SA02 HE  S       213252.774                              94   -0.74   25.5 279 
 SA04 HN  S       213253.505                              94   -0.62   27.6 298 
 PB07 HZ  P       213250.722                              93    0.0410 32.0 101 
 PB07 H2  S       213255.542                              93    0.22 7 32.0 101 
 PECS H1  S       213254.393                              93   -1.00   32.2 157 
 CT01 HE  S       213255.236                              93   -0.34   32.7 335 
 PB11 H2  S       213255.772                              93    0.01 9 33.4 354 
 WB12 HN  S       213257.421                              92    0.73   36.6  37 
 PB42 HE  S       213256.909                              92    0.17 8 36.8  67 
 WB11 HE  S       213258.707                              92    1.76   37.5  30 
 CT02 HN  S       213256.688                              92   -0.30   37.5 342 
 PB36 H1  P       213252.005                              92   -0.23   40.8 277 
 PB36 H2  S       213256.978                              92   -1.08   40.8 277 
 WB09 HE  S       213259.785                              92    1.83   40.9  27 
 PB35 H1  S       213256.509                              92   -1.65   41.1 273 
 NMP11HE  S       213258.218                              92    0.03 9 41.7   8 
 PB38 H1  S       213257.237                              92   -1.14   41.9 284 
 WB10 HN  S       213259.161                              92    0.89   41.9  38 
 SA07 HE  S       213257.389                              92   -1.29   43.0 306 
 PB10 H1  S       213258.721                              92   -0.63   45.7 149 
 PB12 HE  S       213258.733                              92   -1.17   47.3 175 
 PB28 H2  S       213259.026                              92   -1.07   47.7 274 
 DG07 C1  S       2133 0.411                              91    0.05 7 49.2 114 
 DG02 C1  S       2133 0.268                              91   -0.51   50.6 121 
 PB37 H1  S       213259.906                              91   -1.19   51.0 280 
 PCOS HE  S       2133 1.245                              91   -0.21 6 52.9 118 
 DG06 C2  S       2133 1.790                              91   -0.25 6 54.9 117 
 NMP41HE  S       2133 1.801                              91   -0.64   56.0  42 
 DG08 C1  S       2133 1.329                              91   -1.13   56.1 152 
 DG03 C2  S       2133 2.019                              91   -0.42   56.1 119 
 LWM2 HZ  P       213254.660                              91   -0.18 8 56.7 136 
 LWM2 HE  S       2133 2.068                              91   -0.53   56.7 136 
 LWM1 HE  S       2133 2.195                              91   -0.54   57.2 142 
 PDB  HE  S       2133 3.769                              91   -0.37   61.6  38 
 NMP23HE  S       2133 4.190                              91   -0.04 7 61.9  17 
 NMP51HN  S       2133 5.179                              91   -0.90   68.3  53 
 CL2B E   P       213256.993                              91   -0.52   70.8   9 
 PB06 H1  S       2133 6.186                              89   -1.54   74.0  89 
 PB30 HN  S       2133 7.204                              87   -0.96   75.5 121 
 PB03 H1  S       2133 7.304                              85   -1.29   76.9 143 
 PB05 H1  S       213314.327                              77   -1.67    102 141 
 DB03 HE  S       213315.458                              77   -1.24    105 123 
 PB22 H1  S       213315.295                              77   -1.52    105 116 
 PECS H1  P       213250.400                                         0 32.1 157 
 PECS H1  S       213254.677                                         0 32.1 157 
 PB11 HZ  P       213250.899                                         0 33.4 354 
 PB11 H2  S       213255.525                                         0 33.4 354 
                                                                                

