<?xml version='1.0' encoding='utf-8'?>
<q:quakeml xmlns="http://quakeml.org/xmlns/bed/1.2" xmlns:q="http://quakeml.org/xmlns/quakeml/1.2" xmlns:ns0="http://anss.org/xmlns/catalog/0.1" xmlns:ns1="http://geofon.gfz-potsdam.de/ns/seiscomp3-schema/0.11">
  <eventParameters publicID="smi:org.gfz-potsdam.de/geofon/tx/1668705176.727375">
    <creationInfo>
      <agencyID>TX</agencyID>
      <creationTime>2022-11-17T17:12:56.727375Z</creationTime>
    </creationInfo>
    <event publicID="smi:org.gfz-potsdam.de/geofon/texnet2022wmmd" ns0:datasource="tx" ns0:eventsource="tx" ns0:eventid="2022wmmd" ns0:dataid="tx2022wmmd">
      <preferredOriginID>smi:org.gfz-potsdam.de/geofon/NLL.20221117170218.53264.116304</preferredOriginID>
      <preferredMagnitudeID>smi:org.gfz-potsdam.de/geofon/Magnitude/20221117170222.739536.116338</preferredMagnitudeID>
      <preferredFocalMechanismID>smi:org.gfz-potsdam.de/geofon/FocalMechanism/20221117003721.714512.92750</preferredFocalMechanismID>
      <type>earthquake</type>
      <typeCertainty>known</typeCertainty>
      <description>
        <text>Western Texas</text>
        <type>region name</type>
      </description>
      <creationInfo>
        <agencyID>TX</agencyID>
        <creationTime>2022-11-16T21:32:55.683979Z</creationTime>
        <ns1:modificationTime>2022-11-17T17:12:52.162486Z</ns1:modificationTime>
      </creationInfo>
      <origin publicID="smi:org.gfz-potsdam.de/geofon/NLL.20221117170218.53264.116304" ns0:datasource="tx" ns0:eventsource="tx" ns0:eventid="2022wmmd" ns0:dataid="tx2022wmmd">
        <time>
          <value>2022-11-16T21:32:44.481830Z</value>
        </time>
        <latitude>
          <value>31.6367452</value>
          <uncertainty>0.2193609021</uncertainty>
        </latitude>
        <longitude>
          <value>-103.9987871</value>
          <uncertainty>0.2936453823</uncertainty>
        </longitude>
        <depth>
          <value>6902.8076169999995</value>
          <uncertainty>629.622792</uncertainty>
        </depth>
        <methodID>smi:org.gfz-potsdam.de/geofon/NonLinLoc</methodID>
        <earthModelID>smi:org.gfz-potsdam.de/geofon/PB1D-20170918-topoLV</earthModelID>
        <quality>
          <associatedPhaseCount>119</associatedPhaseCount>
          <usedPhaseCount>55</usedPhaseCount>
          <usedStationCount>42</usedStationCount>
          <standardError>0.1</standardError>
          <azimuthalGap>46.0</azimuthalGap>
          <secondaryAzimuthalGap>62.72676132</secondaryAzimuthalGap>
          <groundTruthLevel>-</groundTruthLevel>
          <minimumDistance>0.02345152448</minimumDistance>
          <maximumDistance>0.3749718621</maximumDistance>
          <medianDistance>0.3150239362</medianDistance>
        </quality>
        <evaluationMode>manual</evaluationMode>
        <evaluationStatus>final</evaluationStatus>
        <creationInfo>
          <agencyID>TX</agencyID>
          <creationTime>2022-11-17T17:02:19.722683Z</creationTime>
          <ns1:modificationTime>2022-11-17T17:12:30.925719Z</ns1:modificationTime>
        </creationInfo>
        <originUncertainty>
          <horizontalUncertainty>462.81090609999995</horizontalUncertainty>
          <minHorizontalUncertainty>307.90216269999996</minHorizontalUncertainty>
          <maxHorizontalUncertainty>462.81090609999995</maxHorizontalUncertainty>
          <azimuthMaxHorizontalUncertainty>68.61737477</azimuthMaxHorizontalUncertainty>
          <confidenceEllipsoid>
            <semiMajorAxisLength>1247078.413</semiMajorAxisLength>
            <semiMinorAxisLength>377909.4905</semiMinorAxisLength>
            <semiIntermediateAxisLength>419051.1494</semiIntermediateAxisLength>
            <majorAxisPlunge>19.61495438</majorAxisPlunge>
            <majorAxisAzimuth>-161.4637085</majorAxisAzimuth>
            <majorAxisRotation>95.96235939</majorAxisRotation>
          </confidenceEllipsoid>
        </originUncertainty>
        <arrival publicID="smi:org.gfz-potsdam.de/geofon/Pick/20221117015938.385144.74510_NLL.20221117170218.53264.116304">
          <pickID>smi:org.gfz-potsdam.de/geofon/Pick/20221117015938.385144.74510</pickID>
          <phase>P</phase>
          <timeCorrection>0.0</timeCorrection>
          <azimuth>223.8660953</azimuth>
          <distance>0.02345152448</distance>
          <takeoffAngle>
            <value>158.1</value>
          </takeoffAngle>
          <timeResidual>-0.03648824508</timeResidual>
          <timeWeight>1.245844371</timeWeight>
        </arrival>
        <arrival publicID="smi:org.gfz-potsdam.de/geofon/Pick/20221117015938.385263.74511_NLL.20221117170218.53264.116304">
          <pickID>smi:org.gfz-potsdam.de/geofon/Pick/20221117015938.385263.74511</pickID>
          <phase>P</phase>
          <timeCorrection>0.0</timeCorrection>
          <azimuth>135.827024</azimuth>
          <distance>0.03651137465</distance>
          <takeoffAngle>
            <value>148.4</value>
          </takeoffAngle>
          <timeResidual>-0.04800092438</timeResidual>
          <timeWeight>1.230866736</timeWeight>
        </arrival>
        <arrival publicID="smi:org.gfz-potsdam.de/geofon/Pick/20221116214756.54407.84373_NLL.20221117170218.53264.116304">
          <pickID>smi:org.gfz-potsdam.de/geofon/Pick/20221116214756.54407.84373</pickID>
          <phase>P</phase>
          <timeCorrection>0.0</timeCorrection>
          <azimuth>320.5225295</azimuth>
          <distance>0.05202981106</distance>
          <takeoffAngle>
            <value>138.2</value>
          </takeoffAngle>
          <timeResidual>0.1767528044</timeResidual>
          <timeWeight>0.9235935826</timeWeight>
        </arrival>
        <arrival publicID="smi:org.gfz-potsdam.de/geofon/Pick/20221116214756.544252.84374_NLL.20221117170218.53264.116304">
          <pickID>smi:org.gfz-potsdam.de/geofon/Pick/20221116214756.544252.84374</pickID>
          <phase>S</phase>
          <timeCorrection>0.0</timeCorrection>
          <azimuth>320.5225295</azimuth>
          <distance>0.05202981106</distance>
          <takeoffAngle>
            <value>138.2</value>
          </takeoffAngle>
          <timeResidual>-0.01797428259</timeResidual>
          <timeWeight>1.001004023</timeWeight>
        </arrival>
        <arrival publicID="smi:org.gfz-potsdam.de/geofon/Pick/20221117015938.3853.74512_NLL.20221117170218.53264.116304">
          <pickID>smi:org.gfz-potsdam.de/geofon/Pick/20221117015938.3853.74512</pickID>
          <phase>P</phase>
          <timeCorrection>0.0</timeCorrection>
          <azimuth>261.0899022</azimuth>
          <distance>0.05442637709</distance>
          <takeoffAngle>
            <value>136.8</value>
          </takeoffAngle>
          <timeResidual>0.05683002911</timeResidual>
          <timeWeight>1.232799673</timeWeight>
        </arrival>
        <arrival publicID="smi:org.gfz-potsdam.de/geofon/Pick/20221117164826.532236.115001_NLL.20221117170218.53264.116304">
          <pickID>smi:org.gfz-potsdam.de/geofon/Pick/20221117164826.532236.115001</pickID>
          <phase>P</phase>
          <timeCorrection>0.0</timeCorrection>
          <azimuth>84.77310787</azimuth>
          <distance>0.05553466475</distance>
          <takeoffAngle>
            <value>135.9</value>
          </takeoffAngle>
          <timeResidual>0.02816460612</timeResidual>
          <timeWeight>1.262349847</timeWeight>
        </arrival>
        <arrival publicID="smi:org.gfz-potsdam.de/geofon/Pick/20221117165346.006932.115338_NLL.20221117170218.53264.116304">
          <pickID>smi:org.gfz-potsdam.de/geofon/Pick/20221117165346.006932.115338</pickID>
          <phase>S</phase>
          <timeCorrection>0.0</timeCorrection>
          <azimuth>84.77310787</azimuth>
          <distance>0.05553466475</distance>
          <takeoffAngle>
            <value>135.9</value>
          </takeoffAngle>
          <timeResidual>-0.2025323301</timeResidual>
          <timeWeight>0.7898652033</timeWeight>
        </arrival>
        <arrival publicID="smi:org.gfz-potsdam.de/geofon/Pick/20221117164826.5324.115003_NLL.20221117170218.53264.116304">
          <pickID>smi:org.gfz-potsdam.de/geofon/Pick/20221117164826.5324.115003</pickID>
          <phase>P</phase>
          <timeCorrection>0.0</timeCorrection>
          <azimuth>293.6520466</azimuth>
          <distance>0.06873102299</distance>
          <takeoffAngle>
            <value>126.7</value>
          </takeoffAngle>
          <timeResidual>0.09318948877</timeResidual>
          <timeWeight>1.166026176</timeWeight>
        </arrival>
        <arrival publicID="smi:org.gfz-potsdam.de/geofon/Pick/20221117015938.385627.74518_NLL.20221117170218.53264.116304">
          <pickID>smi:org.gfz-potsdam.de/geofon/Pick/20221117015938.385627.74518</pickID>
          <phase>S</phase>
          <timeCorrection>0.0</timeCorrection>
          <azimuth>293.6520466</azimuth>
          <distance>0.06873102299</distance>
          <takeoffAngle>
            <value>126.7</value>
          </takeoffAngle>
          <timeResidual>-0.07912815783</timeResidual>
          <timeWeight>1.173799933</timeWeight>
        </arrival>
        <arrival publicID="smi:org.gfz-potsdam.de/geofon/Pick/20221117015938.385718.74520_NLL.20221117170218.53264.116304">
          <pickID>smi:org.gfz-potsdam.de/geofon/Pick/20221117015938.385718.74520</pickID>
          <phase>P</phase>
          <timeCorrection>0.0</timeCorrection>
          <azimuth>228.8291483</azimuth>
          <distance>0.08122707231</distance>
          <takeoffAngle>
            <value>120.4</value>
          </takeoffAngle>
          <timeResidual>0.001926146611</timeResidual>
          <timeWeight>1.269744759</timeWeight>
        </arrival>
        <arrival publicID="smi:org.gfz-potsdam.de/geofon/Pick/20221117015938.385851.74521_NLL.20221117170218.53264.116304">
          <pickID>smi:org.gfz-potsdam.de/geofon/Pick/20221117015938.385851.74521</pickID>
          <phase>P</phase>
          <timeCorrection>0.0</timeCorrection>
          <azimuth>344.4484955</azimuth>
          <distance>0.09946870646</distance>
          <takeoffAngle>
            <value>112.8</value>
          </takeoffAngle>
          <timeResidual>0.1557468939</timeResidual>
          <timeWeight>0.9925355677</timeWeight>
        </arrival>
        <arrival publicID="smi:org.gfz-potsdam.de/geofon/Pick/20221116214756.544409.84377_NLL.20221117170218.53264.116304">
          <pickID>smi:org.gfz-potsdam.de/geofon/Pick/20221116214756.544409.84377</pickID>
          <phase>P</phase>
          <timeCorrection>0.0</timeCorrection>
          <azimuth>328.6132401</azimuth>
          <distance>0.09994640016</distance>
          <takeoffAngle>
            <value>112.8</value>
          </takeoffAngle>
          <timeResidual>0.1543081093</timeResidual>
          <timeWeight>0.8761622957</timeWeight>
        </arrival>
        <arrival publicID="smi:org.gfz-potsdam.de/geofon/Pick/20221116214756.544453.84378_NLL.20221117170218.53264.116304">
          <pickID>smi:org.gfz-potsdam.de/geofon/Pick/20221116214756.544453.84378</pickID>
          <phase>S</phase>
          <timeCorrection>0.0</timeCorrection>
          <azimuth>328.6132401</azimuth>
          <distance>0.09994640016</distance>
          <takeoffAngle>
            <value>112.8</value>
          </takeoffAngle>
          <timeResidual>0.02776428281</timeResidual>
          <timeWeight>1.002165365</timeWeight>
        </arrival>
        <arrival publicID="smi:org.gfz-potsdam.de/geofon/Pick/20221117015938.386056.74526_NLL.20221117170218.53264.116304">
          <pickID>smi:org.gfz-potsdam.de/geofon/Pick/20221117015938.386056.74526</pickID>
          <phase>P</phase>
          <timeCorrection>0.0</timeCorrection>
          <azimuth>24.93790857</azimuth>
          <distance>0.1097855479</distance>
          <takeoffAngle>
            <value>109.5</value>
          </takeoffAngle>
          <timeResidual>0.1370960715</timeResidual>
          <timeWeight>1.050212931</timeWeight>
        </arrival>
        <arrival publicID="smi:org.gfz-potsdam.de/geofon/Pick/20221117164826.53251.115004_NLL.20221117170218.53264.116304">
          <pickID>smi:org.gfz-potsdam.de/geofon/Pick/20221117164826.53251.115004</pickID>
          <phase>P</phase>
          <timeCorrection>0.0</timeCorrection>
          <azimuth>205.0513223</azimuth>
          <distance>0.1123886009</distance>
          <takeoffAngle>
            <value>108.9</value>
          </takeoffAngle>
          <timeResidual>-0.04855038058</timeResidual>
          <timeWeight>1.230065609</timeWeight>
        </arrival>
        <arrival publicID="smi:org.gfz-potsdam.de/geofon/Pick/20221117164826.532567.115005_NLL.20221117170218.53264.116304">
          <pickID>smi:org.gfz-potsdam.de/geofon/Pick/20221117164826.532567.115005</pickID>
          <phase>S</phase>
          <timeCorrection>0.0</timeCorrection>
          <azimuth>205.0513223</azimuth>
          <distance>0.1123886009</distance>
          <takeoffAngle>
            <value>108.9</value>
          </takeoffAngle>
          <timeResidual>0.1122460104</timeResidual>
          <timeWeight>1.118422886</timeWeight>
        </arrival>
        <arrival publicID="smi:org.gfz-potsdam.de/geofon/Pick/20221117015938.385932.74523_NLL.20221117170218.53264.116304">
          <pickID>smi:org.gfz-potsdam.de/geofon/Pick/20221117015938.385932.74523</pickID>
          <phase>P</phase>
          <timeCorrection>0.0</timeCorrection>
          <azimuth>158.9798967</azimuth>
          <distance>0.114177377</distance>
          <takeoffAngle>
            <value>108.3</value>
          </takeoffAngle>
          <timeResidual>-0.06737632851</timeResidual>
          <timeWeight>1.198055333</timeWeight>
        </arrival>
        <arrival publicID="smi:org.gfz-potsdam.de/geofon/Pick/20221117164826.532752.115006_NLL.20221117170218.53264.116304">
          <pickID>smi:org.gfz-potsdam.de/geofon/Pick/20221117164826.532752.115006</pickID>
          <phase>P</phase>
          <timeCorrection>0.0</timeCorrection>
          <azimuth>69.4140313</azimuth>
          <distance>0.1221260299</distance>
          <takeoffAngle>
            <value>106.0</value>
          </takeoffAngle>
          <timeResidual>0.09111202861</timeResidual>
          <timeWeight>1.170635215</timeWeight>
        </arrival>
        <arrival publicID="smi:org.gfz-potsdam.de/geofon/Pick/20221117164826.532803.115007_NLL.20221117170218.53264.116304">
          <pickID>smi:org.gfz-potsdam.de/geofon/Pick/20221117164826.532803.115007</pickID>
          <phase>S</phase>
          <timeCorrection>0.0</timeCorrection>
          <azimuth>69.4140313</azimuth>
          <distance>0.1221260299</distance>
          <takeoffAngle>
            <value>106.0</value>
          </takeoffAngle>
          <timeResidual>0.6583655058</timeResidual>
        </arrival>
        <arrival publicID="smi:org.gfz-potsdam.de/geofon/Pick/20221117015938.38619.74529_NLL.20221117170218.53264.116304">
          <pickID>smi:org.gfz-potsdam.de/geofon/Pick/20221117015938.38619.74529</pickID>
          <phase>P</phase>
          <timeCorrection>0.0</timeCorrection>
          <azimuth>122.5413655</azimuth>
          <distance>0.1545129781</distance>
          <takeoffAngle>
            <value>99.8</value>
          </takeoffAngle>
          <timeResidual>0.02710291317</timeResidual>
          <timeWeight>1.263020769</timeWeight>
        </arrival>
        <arrival publicID="smi:org.gfz-potsdam.de/geofon/Pick/20221117164826.532898.115008_NLL.20221117170218.53264.116304">
          <pickID>smi:org.gfz-potsdam.de/geofon/Pick/20221117164826.532898.115008</pickID>
          <phase>S</phase>
          <timeCorrection>0.0</timeCorrection>
          <azimuth>122.5413655</azimuth>
          <distance>0.1545129781</distance>
          <takeoffAngle>
            <value>99.8</value>
          </takeoffAngle>
          <timeResidual>0.06302936975</timeResidual>
          <timeWeight>0.9752103084</timeWeight>
        </arrival>
        <arrival publicID="smi:org.gfz-potsdam.de/geofon/Pick/20221116214756.544546.84380_NLL.20221117170218.53264.116304">
          <pickID>smi:org.gfz-potsdam.de/geofon/Pick/20221116214756.544546.84380</pickID>
          <phase>P</phase>
          <timeCorrection>0.0</timeCorrection>
          <azimuth>313.3900991</azimuth>
          <distance>0.1762233021</distance>
          <takeoffAngle>
            <value>97.6</value>
          </takeoffAngle>
          <timeResidual>0.0699025821</timeResidual>
          <timeWeight>0.9799628791</timeWeight>
        </arrival>
        <arrival publicID="smi:org.gfz-potsdam.de/geofon/Pick/20221116214756.544502.84379_NLL.20221117170218.53264.116304">
          <pickID>smi:org.gfz-potsdam.de/geofon/Pick/20221116214756.544502.84379</pickID>
          <phase>S</phase>
          <timeCorrection>0.0</timeCorrection>
          <azimuth>313.3900991</azimuth>
          <distance>0.1762233021</distance>
          <takeoffAngle>
            <value>97.6</value>
          </takeoffAngle>
          <timeResidual>-0.6361252515</timeResidual>
        </arrival>
        <arrival publicID="smi:org.gfz-potsdam.de/geofon/Pick/20221116214756.544593.84381_NLL.20221117170218.53264.116304">
          <pickID>smi:org.gfz-potsdam.de/geofon/Pick/20221116214756.544593.84381</pickID>
          <phase>P</phase>
          <timeCorrection>0.0</timeCorrection>
          <azimuth>50.50793085</azimuth>
          <distance>0.1836456002</distance>
          <takeoffAngle>
            <value>97.0</value>
          </takeoffAngle>
          <timeResidual>0.169116343</timeResidual>
          <timeWeight>0.8513160003</timeWeight>
        </arrival>
        <arrival publicID="smi:org.gfz-potsdam.de/geofon/Pick/20221116214756.544638.84382_NLL.20221117170218.53264.116304">
          <pickID>smi:org.gfz-potsdam.de/geofon/Pick/20221116214756.544638.84382</pickID>
          <phase>S</phase>
          <timeCorrection>0.0</timeCorrection>
          <azimuth>50.50793085</azimuth>
          <distance>0.1836456002</distance>
          <takeoffAngle>
            <value>97.0</value>
          </takeoffAngle>
          <timeResidual>0.1732865526</timeResidual>
          <timeWeight>0.7093860465</timeWeight>
        </arrival>
        <arrival publicID="smi:org.gfz-potsdam.de/geofon/Pick/20221117015938.386355.74530_NLL.20221117170218.53264.116304">
          <pickID>smi:org.gfz-potsdam.de/geofon/Pick/20221117015938.386355.74530</pickID>
          <phase>P</phase>
          <timeCorrection>0.0</timeCorrection>
          <azimuth>340.5216767</azimuth>
          <distance>0.2273640798</distance>
          <takeoffAngle>
            <value>94.9</value>
          </takeoffAngle>
          <timeResidual>-0.07042877044</timeResidual>
          <timeWeight>1.191162887</timeWeight>
        </arrival>
        <arrival publicID="smi:org.gfz-potsdam.de/geofon/Pick/20221117015938.386418.74531_NLL.20221117170218.53264.116304">
          <pickID>smi:org.gfz-potsdam.de/geofon/Pick/20221117015938.386418.74531</pickID>
          <phase>S</phase>
          <timeCorrection>0.0</timeCorrection>
          <azimuth>340.5216767</azimuth>
          <distance>0.2273640798</distance>
          <takeoffAngle>
            <value>94.9</value>
          </takeoffAngle>
          <timeResidual>-0.2775805784</timeResidual>
        </arrival>
        <arrival publicID="smi:org.gfz-potsdam.de/geofon/Pick/20221116214756.544684.84383_NLL.20221117170218.53264.116304">
          <pickID>smi:org.gfz-potsdam.de/geofon/Pick/20221116214756.544684.84383</pickID>
          <phase>P</phase>
          <timeCorrection>0.0</timeCorrection>
          <azimuth>279.0456291</azimuth>
          <distance>0.2295749498</distance>
          <takeoffAngle>
            <value>94.8</value>
          </takeoffAngle>
          <timeResidual>0.08240049835</timeResidual>
          <timeWeight>0.7767698517</timeWeight>
        </arrival>
